{
    "links": {
        "self": "http://www.neowsapp.com/rest/v1/neo/3351217?api_key=iIulBulltgU6a56xZRHN4H3l9WmuAYTsLGpBGhQ2"
    },
    "id": "3351217",
    "neo_reference_id": "3351217",
    "name": "(2006 UJ)",
    "designation": "2006 UJ",
    "nasa_jpl_url": "http://ssd.jpl.nasa.gov/sbdb.cgi?sstr=3351217",
    "absolute_magnitude_h": 23.9,
    "estimated_diameter": {
        "kilometers": {
            "estimated_diameter_min": 0.04411182,
            "estimated_diameter_max": 0.0986370281
        },
        "meters": {
            "estimated_diameter_min": 44.1118199997,
            "estimated_diameter_max": 98.6370281305
        },
        "miles": {
            "estimated_diameter_min": 0.0274098057,
            "estimated_diameter_max": 0.0612901888
        },
        "feet": {
            "estimated_diameter_min": 144.7238235278,
            "estimated_diameter_max": 323.6123073718
        }
    },
    "is_potentially_hazardous_asteroid": false,
    "close_approach_data": [
        {
            "close_approach_date": "2006-09-28",
            "close_approach_date_full": "2006-Sep-28 14:11",
            "epoch_date_close_approach": 1159452660000,
            "relative_velocity": {
                "kilometers_per_second": "5.3713995852",
                "kilometers_per_hour": "19337.0385065994",
                "miles_per_hour": "12015.2837320589"
            },
            "miss_distance": {
                "astronomical": "0.1380209166",
                "lunar": "53.6901365574",
                "kilometers": "20647635.138807642",
                "miles": "12829845.5474117796"
            },
            "orbiting_body": "Earth"
        }
    ],
    "orbital_data": {
        "orbit_id": "8",
        "orbit_determination_date": "2017-04-06 09:07:52",
        "first_observation_date": "2006-10-16",
        "last_observation_date": "2006-10-22",
        "data_arc_in_days": 6,
        "observations_used": 18,
        "orbit_uncertainty": "9",
        "minimum_orbit_intersection": ".131116",
        "jupiter_tisserand_invariant": "3.481",
        "epoch_osculation": "2454027.5",
        "eccentricity": ".4901079456433572",
        "semi_major_axis": "2.215434656394573",
        "inclination": "5.324595122079694",
        "ascending_node_longitude": "203.424588719651",
        "orbital_period": "1204.444643725725",
        "perihelion_distance": "1.129632528241932",
        "perihelion_argument": "164.5822073856019",
        "aphelion_distance": "3.301236784547215",
        "perihelion_time": "2454007.507832593474",
        "mean_anomaly": "5.975517682644363",
        "mean_motion": ".2988929394765766",
        "equinox": "J2000",
        "orbit_class": {
            "orbit_class_type": "AMO",
            "orbit_class_description": "Near-Earth asteroid orbits similar to that of 1221 Amor",
            "orbit_class_range": "1.017 AU < q (perihelion) < 1.3 AU"
        }
    },
    "is_sentry_object": false
}